# Dwarf planets of the Solar System along with all known satellites.
# Each object has all alternative designations.
# Pluto is defined first, so that it will be selected by the "9" key.

# Orbits of primary bodies and barycenters around either the Sun or the
# Solar System Barycenter (SSB) were queried from the Horizons system:
# https://ssd.jpl.nasa.gov/horizons/

# Sizes and albedos (geometric and Bond) of Pluto, Haumea, Makemake and Eris
# are taken from Verbiscer et al. (2022), Planet. Sci. J. 3, 95
# "The Diverse Shapes of Dwarf Planet and Large KBO Phase Curves Observed from New Horizons"
# https://ui.adsabs.harvard.edu/abs/2022PSJ.....3...95V/abstract


# Stern et al. (2018), Annu. Rev. Astro. Astrophys. 56, p. 357-392
# "The Pluto System After New Horizons"
# https://ui.adsabs.harvard.edu/abs/2018ARA%26A..56..357S/abstract
# Masses of Pluto and Charon and mean orbital elements from
# Brozović and Jacobson (2024), AJ 167, 256
# "Post-new-horizons Orbits and Masses for the Satellites of Pluto"
# https://ui.adsabs.harvard.edu/abs/2024AJ....167..256B/abstract
# Sizes and rotational parameters of Nix and Hydra from
# https://naif.jpl.nasa.gov/pub/naif/pds/data/nh-j_p_ss-spice-6-v1.0/nhsp_1000/data/pck/nh_pcnh_010.tpc
# Masses and densities of Nix and Hydra from Porter and Canup (2023), Planet. Sci. J. 4, 120
# "Orbits and Masses of the Small Satellites of Pluto"
# https://ui.adsabs.harvard.edu/abs/2023PSJ.....4..120P/abstract
# Albedos of Nix and Hydra from Porter et al. (2021), "The Pluto System After New Horizons", p. 426
# Color calculated with phase integral from Verbiscer et al. (2022), Planet. Sci. J. 3, 95
# "The Diverse Shapes of Dwarf Planet and Large KBO Phase Curves Observed from New Horizons"
# https://ui.adsabs.harvard.edu/abs/2022PSJ.....3...95V/abstract
ReferencePoint "Pluto-Charon" "Sol"
{
	# CustomOrbit "pluto"
	EllipticalOrbit
	{
		Epoch	2457218.0  # 2015 Jul 14 12:00
		Period	248.0553249511832
		SemiMajorAxis	39.47846297299562
		Eccentricity	0.2501751659981197
		Inclination	17.16199308367073
		AscendingNode	110.287823984409
		ArgOfPericenter	113.3692019799804
		MeanAnomaly	37.59869705192153
	}
	# Make the orbit and label visible
	Visible true
	Clickable true
}

"Pluto:134340 Pluto" "Sol"
{
	Class	"dwarfplanet"
	Texture	"pluto.*"
	NormalMap	"pluto-normal.*"
	Color	[ 1.0 0.95948 0.86047 ]
	Radius	1188.3
	Mass<kg>	1.3025e22
	Atmosphere
	{
		Height	130
		Mie	0.00005
		MieAsymmetry	-0.55
		Rayleigh	[ 0.00002 0.00003 0.00006 ]
		MieScaleHeight	60
	}
	OrbitFrame
	{
		EclipticJ2000	{ Center "Sol/Pluto-Charon" }
	}
	EllipticalOrbit
	{
		Epoch	2457218.0  # 2015 Jul 14 12:00
		Period	6.387221  # mean
		SemiMajorAxis	2130.734  # separation = 19595.764 km, mass ratio = 0.1220
		Eccentricity	0.000161  # mean
		Inclination	112.888628
		AscendingNode	227.392167
		ArgOfPericenter	352.410172
		MeanAnomaly	213.475686
	}
	BodyFrame	{ EclipticJ2000 {} }
	UniformRotation  # to match orbit
	{
		Epoch	2457218.0  # 2015 Jul 14 12:00
		Inclination	112.888628
		AscendingNode	227.392167
		MeridianAngle	25.885858
	}
	LunarLambert	0.7  # Buratti et al. (2017), 2017Icar..287..207B
	# GeomAlbedo	0.51
	Reflectivity	0.41  # Bond albedo
	InfoURL	"https://en.wikipedia.org/wiki/Pluto"
}

# Photometric parameters from Buratti et al. (2019), ApJL 874, L3
# "New Horizons Photometry of Pluto's Moon Charon"
# https://ui.adsabs.harvard.edu/abs/2019ApJ...874L...3B/abstract
"Charon:Pluto I:134340 Pluto I:S 1978 P 1:P1" "Sol/Pluto"
{
	Class	"moon"
	Texture	"charon.*"
	NormalMap	"charon-normal.*"
	Color	[ 0.994 1.0 0.972 ]
	Radius	606.0
	Mass<kg>	1.5897e21
	OrbitFrame
	{
		EclipticJ2000	{ Center "Sol/Pluto-Charon" }
	}
	EllipticalOrbit
	{
		Epoch	2457218.0  # 2015 Jul 14 12:00
		Period	6.387221  # mean
		SemiMajorAxis	17465.030  # separation = 19595.764 km, mass ratio = 0.1220
		Eccentricity	0.000161  # mean
		Inclination	112.888628
		AscendingNode	227.392167
		ArgOfPericenter	172.410172
		MeanAnomaly	213.475686
	}
	BodyFrame	{ EclipticJ2000 {} }
	UniformRotation  # to match orbit
	{
		Epoch	2457218.0  # 2015 Jul 14 12:00
		Inclination	112.888628
		AscendingNode	227.392167
		MeridianAngle	205.885858
	}
	LunarLambert	0.9
	# GeomAlbedo	0.41
	Reflectivity	0.29  # Bond albedo
	InfoURL	"https://en.wikipedia.org/wiki/Charon_(moon)"
}

"Styx:Pluto V:134340 Pluto V:S 2012 (134340) 1:P5" "Sol/Pluto"
{
	Class	"minormoon"
	Mesh	"roughsphere.cms"
	Texture	"icymoon.*"
	SemiAxes	[ 8 4.5 4 ]
	OrbitFrame
	{
		EclipticJ2000	{ Center "Sol/Pluto-Charon" }
	}
	EllipticalOrbit
	{
		Epoch	2457218.0  # 2015 Jul 14 12:00
		Period	20.89  # mean
		SemiMajorAxis	43163  # mean
		Eccentricity	0.025  # mean
		Inclination	112.885556
		AscendingNode	227.339963
		ArgOfPericenter	32.651282
		MeanAnomaly	311.500838
	}
	BodyFrame	{ EquatorJ2000 {} }
	UniformRotation
	{
		Period	77.76
		Inclination	29
		AscendingNode	286
	}
	LunarLambert	0.5
	GeomAlbedo	0.65
	InfoURL	"https://en.wikipedia.org/wiki/Styx_(moon)"
}

"Nix:Pluto II:134340 Pluto II:S 2005 P 2:P2" "Sol/Pluto"
{
	Class	"minormoon"
	Mesh	"nix.cmod"
	MeshCenter	[ -2.401 -2.074 3.591 ]
	Texture	"nix.*"
	Radius	24.2  # maximum-semi-axis
	Mass<kg>	2.7e16
	Density	1030
	OrbitFrame
	{
		EclipticJ2000	{ Center "Sol/Pluto-Charon" }
	}
	EllipticalOrbit
	{
		Epoch	2457218.0  # 2015 Jul 14 12:00
		Period	25.51  # mean
		SemiMajorAxis	49340  # mean
		Eccentricity	0.015  # mean
		Inclination	112.909674
		AscendingNode	227.385476
		ArgOfPericenter	197.568847
		MeanAnomaly	0.483986
	}
	BodyFrame	{ EquatorJ2000 {} }
	UniformRotation
	{
		Period	43.854353
		Inclination	127.7
		AscendingNode	79.1
		MeridianAngle	243.5722888
	}
	LunarLambert	0.5
	# GeomAlbedo	0.56
	Reflectivity	0.24  # Bond albedo
	InfoURL	"https://en.wikipedia.org/wiki/Nix_(moon)"
}

"Kerberos:Pluto IV:134340 Pluto IV:S 2011 (134340) 1:P4" "Sol/Pluto"
{
	Class	"minormoon"
	Mesh	"roughsphere.cms"
	Texture	"icymoon.*"
	SemiAxes	[ 9.5 5 4.5 ]
	OrbitFrame
	{
		EclipticJ2000	{ Center "Sol/Pluto-Charon" }
	}
	EllipticalOrbit
	{
		Epoch	2457218.0  # 2015 Jul 14 12:00
		Period	32.75  # mean
		SemiMajorAxis	58272  # mean
		Eccentricity	0.010  # mean
		Inclination	113.007202
		AscendingNode	227.835605
		ArgOfPericenter	8.718216
		MeanAnomaly	43.929906
	}
	BodyFrame	{ EquatorJ2000 {} }
	UniformRotation
	{
		Period	127.44
		Inclination	18
		AscendingNode	312
	}
	LunarLambert	0.5
	GeomAlbedo	0.56
	InfoURL	"https://en.wikipedia.org/wiki/Kerberos_(moon)"
}

"Hydra:Pluto III:134340 Pluto III:S 2005 P 1:P3" "Sol/Pluto"
{
	Class	"minormoon"
	Mesh	"hydra.cmod"
	MeshCenter	[ -2.132 -1.112 -0.1515 ]
	Texture	"hydra.*"
	Radius	26.0  # maximum-semi-axis
	Mass<kg>	3.0e16
	Density	1220
	OrbitFrame
	{
		EclipticJ2000	{ Center "Sol/Pluto-Charon" }
	}
	EllipticalOrbit
	{
		Epoch	2457218.0  # 2015 Jul 14 12:00
		Period	38.74  # mean
		SemiMajorAxis	65175  # mean
		Eccentricity	0.009  # mean
		Inclination	112.882038
		AscendingNode	227.697392
		ArgOfPericenter	11.296494
		MeanAnomaly	58.567710
	}
	BodyFrame	{ EquatorJ2000 {} }
	UniformRotation
	{
		Period	10.313208
		Inclination	85.3
		AscendingNode	158.9
		MeridianAngle	57.0724592
	}
	LunarLambert	0.5
	# GeomAlbedo	0.83
	Reflectivity	0.32  # Bond albedo
	InfoURL	"https://en.wikipedia.org/wiki/Hydra_(moon)"
}

# Mass and density from Park et al. (2019), Icarus 319, 812-827
# "High-resolution shape model of Ceres from stereophotoclinometry using Dawn Imaging Data"
# https://ui.adsabs.harvard.edu/abs/2019Icar..319..812P
"Ceres:1 Ceres:1943 XB:A899 OF" "Sol"
{
	Class	"dwarfplanet"
	Texture	"ceres.*"
	NormalMap	"ceres-normal.*"
	Color	[ 1.0 0.993 0.962 ]
	SemiAxes	[ 482.2 482.1 445.9 ]
	Mass<kg>	9.38392e20
	Density	2161.6
	EllipticalOrbit
	{
		Epoch	2458423.5  # 2018 Nov 01
		Period	4.60401749819034
		SemiMajorAxis	2.767488610268551
		Eccentricity	0.07564579866970941
		Inclination	10.5936527669872
		AscendingNode	80.30765982353495
		ArgOfPericenter	73.2425761850776
		MeanAnomaly	39.86375930207814
	}
	BodyFrame	{ EquatorJ2000 {} }
	UniformRotation
	{
	        # C. Raymond, JPL and T. Roatsch, DLR (28-Jun-2018)
		# https://sbnarchive.psi.edu/pds3/dawn/fc/DWNCSPC_4_01/DOCUMENT/CERES_COORD_SYS_180628.HTM
		Epoch	2451545.0         # J2000
		Period	9.074169392       # Omega = 952.1532635 +/- 0.000002 deg/day
		Inclination	23.23967  # Dec   = 66.76033 deg
		AscendingNode	21.42763  # RA    = 291.42763 deg
		MeridianAngle	170.309
	}
	LunarLambert	0.5
	GeomAlbedo	0.090
	InfoURL	"https://en.wikipedia.org/wiki/Ceres_(dwarf_planet)"
}

# Brown & Butler (2018), AJ 156 (4), 164
# "Medium-sized Satellites of Large Kuiper Belt Objects"
# https://iopscience.iop.org/article/10.3847/1538-3881/aad9f2
# Secondary size from Sickafoose et al. (2019), Icarus 319, 657
# "A stellar occultation by Vanth, a satellite of (90482) Orcus"
# https://arxiv.org/abs/1810.08977
# Masses from Brown and Butler (2023), Planet. Sci. J. 4, 193
# "Masses and Densities of Dwarf Planet Satellites Measured with ALMA"
# https://ui.adsabs.harvard.edu/abs/2023PSJ.....4..193B/abstract
ReferencePoint "Orcus-Vanth" "Sol"
{
	OrbitFrame
	{
		EclipticJ2000	{ Center "SSB" }
	}
	EllipticalOrbit  # system barycenter solution
	{
		Epoch	2451545.0  # 2000 Jan 01 12:00
		Period	246.0132195236034
		SemiMajorAxis	39.27904760862676
		Eccentricity	0.2238649605977904
		Inclination	20.56778532527048
		AscendingNode	268.5847818676822
		ArgOfPericenter	73.02144541087628
		MeanAnomaly	151.0612392132629
	}
	# Make the orbit and label visible
	Visible true
	Clickable true
}

